H1 CPF 01  gfz 2022 08 07 00  7191 terrasarx 
H2 0702601  6201 31698    2022 08 07 00 59 42 2022 08 12 00 00 42   120 1 1  0 0 0
H9
10 0 59798  86382.000000  0     539181.299  -5744350.237  -3772581.760
10 0 59799    102.000000  0     385991.170  -6199945.406  -2987217.716
10 0 59799    222.000000  0     219072.067  -6544694.959  -2149427.224
10 0 59799    342.000000  0      43324.291  -6772283.790  -1273878.213
10 0 59799    462.000000  0    -136100.112  -6878534.407   -375933.315
10 0 59799    582.000000  0    -313926.433  -6861493.102    528624.497
10 0 59799    702.000000  0    -484890.369  -6721472.793   1423875.918
10 0 59799    822.000000  0    -643871.748  -6461051.189   2294054.346
10 0 59799    942.000000  0    -786025.361  -6085022.438   3123833.361
10 0 59799   1062.000000  0    -906904.300  -5600302.507   3898605.362
10 0 59799   1182.000000  0   -1002574.261  -5015792.884   4604742.728
10 0 59799   1302.000000  0   -1069715.996  -4342207.814   5229839.061
10 0 59799   1422.000000  0   -1105712.255  -3591868.838   5762926.956
10 0 59799   1542.000000  0   -1108718.709  -2778469.042   6194668.179
10 0 59799   1662.000000  0   -1077715.883  -1916814.626   6517510.136
10 0 59799   1782.000000  0   -1012542.184  -1022552.119   6725811.007
10 0 59799   1902.000000  0    -913908.561   -111882.171   6815933.649
10 0 59799   2022.000000  0    -783393.858    798734.546   6786304.999
10 0 59799   2142.000000  0    -623419.414   1692874.384   6637442.206
10 0 59799   2262.000000  0    -437204.012   2554446.511   6371944.078
10 0 59799   2382.000000  0    -228700.252   3367982.310   5994448.475
10 0 59799   2502.000000  0      -2513.807   4118914.816   5511556.274
10 0 59799   2622.000000  0     236193.648   4793843.178   4931721.550
10 0 59799   2742.000000  0     481816.800   5380778.765   4265110.266
10 0 59799   2862.000000  0     728431.024   5869365.868   3523424.510
10 0 59799   2982.000000  0     969926.210   6251072.637   2719703.609
10 0 59799   3102.000000  0    1200150.476   6519355.869   1868093.172
10 0 59799   3222.000000  0    1413055.399   6669778.935    983589.860
10 0 59799   3342.000000  0    1602841.640   6700090.692     81770.629
10 0 59799   3462.000000  0    1764100.949   6610259.375   -821489.674
10 0 59799   3582.000000  0    1891950.218   6402462.345  -1710305.801
10 0 59799   3702.000000  0    1982154.976   6081032.488  -2569068.762
10 0 59799   3822.000000  0    2031239.159   5652362.197  -3382726.192
10 0 59799   3942.000000  0    2036578.378   5124767.026  -4137050.257
10 0 59799   4062.000000  0    1996474.349   4508312.465  -4818886.385
10 0 59799   4182.000000  0    1910208.745   3814610.463  -5416377.784
10 0 59799   4302.000000  0    1778076.592   3056591.800  -5919163.562
10 0 59799   4422.000000  0    1601397.893   2248258.179  -6318548.684
10 0 59799   4542.000000  0    1382507.931   1404420.295  -6607642.228
10 0 59799   4662.000000  0    1124727.838    540427.770  -6781465.582
10 0 59799   4782.000000  0     832314.244   -328106.691  -6837029.778
10 0 59799   4902.000000  0     510389.256  -1185584.262  -6773380.453
10 0 59799   5022.000000  0     164852.536  -2016692.752  -6591610.842
10 0 59799   5142.000000  0    -197723.177  -2806671.936  -6294845.891
10 0 59799   5262.000000  0    -570213.625  -3541572.012  -5888195.910
10 0 59799   5382.000000  0    -945078.318  -4208498.008  -5378676.689
10 0 59799   5502.000000  0   -1314507.940  -4795837.482  -4775100.221
10 0 59799   5622.000000  0   -1670582.549  -5293468.683  -4087933.888
10 0 59799   5742.000000  0   -2005437.296  -5692943.654  -3329128.801
10 0 59799   5862.000000  0   -2311431.933  -5987642.001  -2511919.636
10 0 59799   5982.000000  0   -2581320.586  -6172892.178  -1650598.666
10 0 59799   6102.000000  0   -2808417.918  -6246057.037   -760266.461
10 0 59799   6222.000000  0   -2986757.363  -6206579.552    143436.850
10 0 59799   6342.000000  0   -3111236.594  -6055986.088   1044613.245
10 0 59799   6462.000000  0   -3177746.614  -5797847.813   1927395.033
10 0 59799   6582.000000  0   -3183280.963  -5437700.242   2776233.624
10 0 59799   6702.000000  0   -3126021.979  -4982923.299   3576181.402
10 0 59799   6822.000000  0   -3005402.019  -4442585.773   4313161.059
10 0 59799   6942.000000  0   -2822138.781  -3827257.795   4974216.831
10 0 59799   7062.000000  0   -2578244.241  -3148796.092   5547742.828
10 0 59799   7182.000000  0   -2277005.766  -2420107.852   6023684.171
10 0 59799   7302.000000  0   -1922941.423  -1654900.061   6393708.534
10 0 59799   7422.000000  0   -1521730.010   -867417.799   6651347.751
10 0 59799   7542.000000  0   -1080117.167    -72175.093   6792103.966
10 0 59799   7662.000000  0    -605801.700    716312.021   6813521.357
10 0 59799   7782.000000  0    -107301.630   1483789.458   6715227.304
10 0 59799   7902.000000  0     406198.687   2216522.598   6498938.720
10 0 59799   8022.000000  0     925017.487   2901541.980   6168433.425
10 0 59799   8142.000000  0    1439157.066   3526873.198   5729488.334
10 0 59799   8262.000000  0    1938495.376   4081749.355   5189784.417
10 0 59799   8382.000000  0    2412985.403   4556801.743   4558778.672
10 0 59799   8502.000000  0    2852858.513   4944224.230   3847542.794
10 0 59799   8622.000000  0    3248825.698   5237907.291   3068573.114
10 0 59799   8742.000000  0    3592276.032   5433543.571   2235573.647
10 0 59799   8862.000000  0    3875465.510   5528695.691   1363209.647
10 0 59799   8982.000000  0    4091688.492   5522825.664    466844.866
10 0 59799   9102.000000  0    4235431.198   5417287.280   -437737.701
10 0 59799   9222.000000  0    4302501.650   5215277.560  -1334622.135
10 0 59799   9342.000000  0    4290133.742   4921752.740  -2208047.392
10 0 59799   9462.000000  0    4197061.848   4543309.416  -3042691.329
10 0 59799   9582.000000  0    4023564.108   4088034.290  -3823944.644
10 0 59799   9702.000000  0    3771473.952   3565326.058  -4538167.232
10 0 59799   9822.000000  0    3444161.827   2985696.103  -5172923.360
10 0 59799   9942.000000  0    3046486.074   2360551.952  -5717192.435
10 0 59799  10062.000000  0    2584715.320   1701969.077  -6161551.129
10 0 59799  10182.000000  0    2066424.742   1022455.883  -6498325.451
10 0 59799  10302.000000  0    1500368.930    334717.484  -6721710.694
10 0 59799  10422.000000  0     896334.675   -348577.610  -6827862.195
10 0 59799  10542.000000  0     264972.470  -1015026.659  -6814955.038
10 0 59799  10662.000000  0    -382387.597  -1652712.081  -6683210.036
10 0 59799  10782.000000  0   -1033933.399  -2250408.257  -6434890.773
10 0 59799  10902.000000  0   -1677581.424  -2797775.755  -6074269.971
10 0 59799  11022.000000  0   -2301195.615  -3285538.420  -5607563.084
10 0 59799  11142.000000  0   -2892812.046  -3705641.119  -5042832.567
10 0 59799  11262.000000  0   -3440868.009  -4051387.196  -4389860.846
10 0 59799  11382.000000  0   -3934429.395  -4317550.763  -3659990.935
10 0 59799  11502.000000  0   -4363411.633  -4500461.816  -2865938.413
10 0 59799  11622.000000  0   -4718790.298  -4598062.211  -2021575.625
10 0 59799  11742.000000  0   -4992795.559  -4609930.014  -1141691.387
10 0 59799  11862.000000  0   -5179085.455  -4537271.424   -241730.384
10 0 59799  11982.000000  0   -5272893.541  -4382880.188    662482.801
10 0 59799  12102.000000  0   -5271146.187  -4151064.403   1555030.419
10 0 59799  12222.000000  0   -5172545.276  -3847541.407   2420191.598
10 0 59799  12342.000000  0   -4977614.678  -3479304.122   3242727.991
10 0 59799  12462.000000  0   -4688709.751  -3054463.034   4008159.189
10 0 59799  12582.000000  0   -4309989.509  -2582067.313   4703023.148
10 0 59799  12702.000000  0   -3847351.743  -2071909.632   5315113.972
10 0 59799  12822.000000  0   -3308335.640  -1534321.532   5833693.827
10 0 59799  12942.000000  0   -2701993.474   -979962.865   6249678.645
10 0 59799  13062.000000  0   -2038732.079   -419608.090   6555793.155
10 0 59799  13182.000000  0   -1330128.349    136064.586   6746691.014
10 0 59799  13302.000000  0    -588724.679    676674.981   6819041.264
10 0 59799  13422.000000  0     172193.110   1192333.682   6771582.956
10 0 59799  13542.000000  0     938833.220   1673822.558   6605145.944
10 0 59799  13662.000000  0    1697147.292   2112759.816   6322636.965
10 0 59799  13782.000000  0    2433086.860   2501745.821   5928991.613
10 0 59799  13902.000000  0    3132863.816   2834489.085   5431094.307
10 0 59799  14022.000000  0    3783211.868   3105910.631   4837664.171
10 0 59799  14142.000000  0    4371641.183   3312223.961   4159106.973
10 0 59799  14262.000000  0    4886683.312   3450988.986   3407339.092
10 0 59799  14382.000000  0    5318124.391   3521140.171   2595579.665
10 0 59799  14502.000000  0    5657213.589   3522984.081   1738115.908
10 0 59799  14622.000000  0    5896846.139   3458169.984    850048.058
10 0 59799  14742.000000  0    6031715.584   3329632.299    -52983.975
10 0 59799  14862.000000  0    6058429.800   3141505.525   -955084.891
10 0 59799  14982.000000  0    5975588.924   2899014.412  -1840392.408
10 0 59799  15102.000000  0    5783822.238   2608343.479  -2693363.312
10 0 59799  15222.000000  0    5485785.073   2276488.990  -3499052.075
10 0 59799  15342.000000  0    5086115.888   1911095.985  -4243375.452
10 0 59799  15462.000000  0    4591353.944   1520285.259  -4913358.828
10 0 59799  15582.000000  0    4009820.258   1112475.210  -5497356.415
10 0 59799  15702.000000  0    3351468.380    696203.631  -5985245.002
10 0 59799  15822.000000  0    2627706.088    279952.242  -6368589.501
10 0 59799  15942.000000  0    1851192.652   -128022.119  -6640776.839
10 0 59799  16062.000000  0    1035617.374   -519846.793  -6797119.374
10 0 59799  16182.000000  0     195460.040   -888181.338  -6834928.249
10 0 59799  16302.000000  0    -654262.012  -1226350.876  -6753552.894
10 0 59799  16422.000000  0   -1498255.143  -1528463.452  -6554391.120
99
